[{"OBJECT_NAME":"STARLINK-36708","OBJECT_ID":"2026-025W","EPOCH":"2026-03-09T22:00:01.999584","MEAN_MOTION":15.50345873,"ECCENTRICITY":0.0001698,"INCLINATION":97.2843,"RA_OF_ASC_NODE":180.5299,"ARG_OF_PERICENTER":61.6948,"MEAN_ANOMALY":67.7006,"EPHEMERIS_TYPE":0,"CLASSIFICATION_TYPE":"U","NORAD_CAT_ID":67713,"ELEMENT_SET_NO":999,"REV_AT_EPOCH":595,"BSTAR":-0.032195086,"MEAN_MOTION_DOT":-0.01637708,"MEAN_MOTION_DDOT":0},{"OBJECT_NAME":"FREGAT DEB [TANK]","OBJECT_ID":"2017-086C","EPOCH":"2026-03-09T20:00:47.069568","MEAN_MOTION":12.91661874,"ECCENTRICITY":0.13388315,"INCLINATION":50.3566,"RA_OF_ASC_NODE":269.5677,"ARG_OF_PERICENTER":319.0148,"MEAN_ANOMALY":31.7228,"EPHEMERIS_TYPE":0,"CLASSIFICATION_TYPE":"U","NORAD_CAT_ID":43089,"ELEMENT_SET_NO":999,"REV_AT_EPOCH":34771,"BSTAR":0.00099674445,"MEAN_MOTION_DOT":0.00053157,"MEAN_MOTION_DDOT":5.384887e-6}]
